CCSDS_OMM_VERS = 2.0
CREATION_DATE  = 
ORIGINATOR     = 

OBJECT_NAME    = XRISM
OBJECT_ID      = 2023-137A
CENTER_NAME    = EARTH
REF_FRAME      = TEME
TIME_SYSTEM    = UTC
MEAN_ELEMENT_THEORY = SGP/SGP4

EPOCH          = 2026-03-31T11:55:47.966880
MEAN_MOTION    = 15.11758652
ECCENTRICITY   = .00079152
INCLINATION    = 31.0015
RA_OF_ASC_NODE = 142.5846
ARG_OF_PERICENTER = 258.4497
MEAN_ANOMALY   = 101.5253

EPHEMERIS_TYPE = 0
CLASSIFICATION_TYPE = U
NORAD_CAT_ID   = 57800
ELEMENT_SET_NO = 999
REV_AT_EPOCH   = 14109
BSTAR          = .42231762E-3
MEAN_MOTION_DOT = .7486E-4
MEAN_MOTION_DDOT = 0

CCSDS_OMM_VERS = 2.0
CREATION_DATE  = 
ORIGINATOR     = 

OBJECT_NAME    = ACS3
OBJECT_ID      = 2024-077B
CENTER_NAME    = EARTH
REF_FRAME      = TEME
TIME_SYSTEM    = UTC
MEAN_ELEMENT_THEORY = SGP/SGP4

EPOCH          = 2026-03-31T19:27:55.873440
MEAN_MOTION    = 13.90657484
ECCENTRICITY   = .0073089
INCLINATION    = 97.1960
RA_OF_ASC_NODE = 26.9510
ARG_OF_PERICENTER = 26.4274
MEAN_ANOMALY   = 334.0589

EPHEMERIS_TYPE = 0
CLASSIFICATION_TYPE = U
NORAD_CAT_ID   = 59588
ELEMENT_SET_NO = 999
REV_AT_EPOCH   = 9727
BSTAR          = .23924E-1
MEAN_MOTION_DOT = .30572E-3
MEAN_MOTION_DDOT = 0

CCSDS_OMM_VERS = 2.0
CREATION_DATE  = 
ORIGINATOR     = 

OBJECT_NAME    = HTV-X1
OBJECT_ID      = 2025-241A
CENTER_NAME    = EARTH
REF_FRAME      = TEME
TIME_SYSTEM    = UTC
MEAN_ELEMENT_THEORY = SGP/SGP4

EPOCH          = 2026-03-31T21:18:02.255904
MEAN_MOTION    = 15.32487751
ECCENTRICITY   = .0007216
INCLINATION    = 51.6377
RA_OF_ASC_NODE = 326.0819
ARG_OF_PERICENTER = 258.6594
MEAN_ANOMALY   = 101.3577

EPHEMERIS_TYPE = 0
CLASSIFICATION_TYPE = U
NORAD_CAT_ID   = 66174
ELEMENT_SET_NO = 999
REV_AT_EPOCH   = 2434
BSTAR          = .54325E-4
MEAN_MOTION_DOT = .1358E-4
MEAN_MOTION_DDOT = 0

CCSDS_OMM_VERS = 2.0
CREATION_DATE  = 
ORIGINATOR     = 

OBJECT_NAME    = SZ-21 MODULE
OBJECT_ID      = 2025-246C
CENTER_NAME    = EARTH
REF_FRAME      = TEME
TIME_SYSTEM    = UTC
MEAN_ELEMENT_THEORY = SGP/SGP4

EPOCH          = 2026-03-31T15:29:36.301920
MEAN_MOTION    = 15.70295966
ECCENTRICITY   = .0002346
INCLINATION    = 41.4739
RA_OF_ASC_NODE = 68.0304
ARG_OF_PERICENTER = 217.6333
MEAN_ANOMALY   = 142.4346

EPHEMERIS_TYPE = 0
CLASSIFICATION_TYPE = U
NORAD_CAT_ID   = 66515
ELEMENT_SET_NO = 999
REV_AT_EPOCH   = 2152
BSTAR          = .36184E-3
MEAN_MOTION_DOT = .45309E-3
MEAN_MOTION_DDOT = 0

